GSN_L_00001072-02
1 62087U 23701EC  26070.40853009  .00000000  00000+0  00000-0 0  9999
2 62087  55.0000 304.2857 0000000   0.0000  28.6753 15.38683946    19
GSN_L_00001072-03
1 62088U 26164L   26070.40853009  .00000000  00000+0  00000-0 0  9996
2 62088  55.0000 304.2857 0000000   0.0000  35.2208 15.38683946    19
GSN_L_00001072-04
1 62089U 22357KI  26070.40853009  .00000000  00000+0  00000-0 0  9997
2 62089  55.0000 304.2857 0000000   0.0000  41.7662 15.38683946    16
GSN_L_00001072-05
1 62090U 22749ZO  26070.40853009  .00000000  00000+0  00000-0 0  9994
2 62090  55.0000 304.2857 0000000   0.0000  48.3117 15.38683946    16
GSN_L_00001072-06
1 62091U 25725IM  26070.40853009  .00000000  00000+0  00000-0 0  9992
2 62091  55.0000 304.2857 0000000   0.0000  54.8571 15.38683946    13
GSN_L_00001072-07
1 62092U 26024YT  26070.40853009  .00000000  00000+0  00000-0 0  9996
2 62092  55.0000 304.2857 0000000   0.0000  61.4026 15.38683946    13
GSN_L_00001072-08
1 62093U 24229EU  26070.40853009  .00000000  00000+0  00000-0 0  9992
2 62093  55.0000 304.2857 0000000   0.0000  67.9481 15.38683946    10
GSN_L_00001072-09
1 62094U 22961NX  26070.40853009  .00000000  00000+0  00000-0 0  9994
2 62094  55.0000 304.2857 0000000   0.0000  74.4935 15.38683946    18
GSN_L_00001072-10
1 62095U 24033GN  26070.40853009  .00000000  00000+0  00000-0 0  9997
2 62095  55.0000 304.2857 0000000   0.0000  81.0390 15.38683946    18
GSN_L_00001072-11
1 62096U 22785TY  26070.40853009  .00000000  00000+0  00000-0 0  9990
2 62096  55.0000 304.2857 0000000   0.0000  87.5844 15.38683946    14
GSN_L_00001072-12
1 62097U 26439HR  26070.40853009  .00000000  00000+0  00000-0 0  9991
2 62097  55.0000 304.2857 0000000   0.0000  94.1299 15.38683946    13
GSN_L_00001072-13
1 62098U 23620IN  26070.40853009  .00000000  00000+0  00000-0 0  9991
2 62098  55.0000 304.2857 0000000   0.0000 100.6753 15.38683946    12
GSN_L_00001072-14
1 62099U 24380XJ  26070.40853009  .00000000  00000+0  00000-0 0  9996
2 62099  55.0000 304.2857 0000000   0.0000 107.2208 15.38683946    11
GSN_L_00001072-15
1 62100U 26354HV  26070.40853009  .00000000  00000+0  00000-0 0  9992
2 62100  55.0000 304.2857 0000000   0.0000 113.7662 15.38683946    10
GSN_L_00001072-16
1 62101U 24179JX  26070.40853009  .00000000  00000+0  00000-0 0  9996
2 62101  55.0000 304.2857 0000000   0.0000 120.3117 15.38683946    10
GSN_L_00001072-17
1 62102U 23495OQ  26070.40853009  .00000000  00000+0  00000-0 0  9997
2 62102  55.0000 304.2857 0000000   0.0000 126.8571 15.38683946    16
GSN_L_00001072-18
1 62103U 26080UZ  26070.40853009  .00000000  00000+0  00000-0 0  9991
2 62103  55.0000 304.2857 0000000   0.0000 133.4026 15.38683946    16
GSN_L_00001072-19
1 62104U 26441FY  26070.40853009  .00000000  00000+0  00000-0 0  9993
2 62104  55.0000 304.2857 0000000   0.0000 139.9481 15.38683946    13
GSN_L_00001072-20
1 62105U 22308TC  26070.40853009  .00000000  00000+0  00000-0 0  9992
2 62105  55.0000 304.2857 0000000   0.0000 146.4935 15.38683946    11
GSN_L_00001072-21
1 62106U 26727UO  26070.40853009  .00000000  00000+0  00000-0 0  9992
2 62106  55.0000 304.2857 0000000   0.0000 153.0390 15.38683946    11
GSN_L_00001072-22
1 62107U 26862EE  26070.40853009  .00000000  00000+0  00000-0 0  9993
2 62107  55.0000 304.2857 0000000   0.0000 159.5844 15.38683946    17
GSN_L_00001072-23
1 62108U 22347WS  26070.40853009  .00000000  00000+0  00000-0 0  9998
2 62108  55.0000 304.2857 0000000   0.0000 166.1299 15.38683946    16
GSN_L_00001072-24
1 62109U 22736VT  26070.40853009  .00000000  00000+0  00000-0 0  9991
2 62109  55.0000 304.2857 0000000   0.0000 172.6753 15.38683946    14
GSN_L_00001072-25
1 62110U 25502ST  26070.40853009  .00000000  00000+0  00000-0 0  9997
2 62110  55.0000 304.2857 0000000   0.0000 179.2208 15.38683946    14
GSN_L_00001072-26
1 62111U 23653YE  26070.40853009  .00000000  00000+0  00000-0 0  9993
2 62111  55.0000 304.2857 0000000   0.0000 185.7662 15.38683946    11
GSN_L_00001072-27
1 62112U 23496ZS  26070.40853009  .00000000  00000+0  00000-0 0  9999
2 62112  55.0000 304.2857 0000000   0.0000 192.3117 15.38683946    11
GSN_L_00001072-28
1 62113U 23028GP  26070.40853009  .00000000  00000+0  00000-0 0  9991
2 62113  55.0000 304.2857 0000000   0.0000 198.8571 15.38683946    17
GSN_L_00001072-29
1 62114U 24985XA  26070.40853009  .00000000  00000+0  00000-0 0  9995
2 62114  55.0000 304.2857 0000000   0.0000 205.4026 15.38683946    18
GSN_L_00001072-30
1 62115U 26076AR  26070.40853009  .00000000  00000+0  00000-0 0  9999
2 62115  55.0000 304.2857 0000000   0.0000 211.9481 15.38683946    16
GSN_L_00001072-31
1 62116U 23169HF  26070.40853009  .00000000  00000+0  00000-0 0  9990
2 62116  55.0000 304.2857 0000000   0.0000 218.4935 15.38683946    13
GSN_L_00001072-32
1 62117U 26737RK  26070.40853009  .00000000  00000+0  00000-0 0  9995
2 62117  55.0000 304.2857 0000000   0.0000 225.0390 15.38683946    13
GSN_L_00001072-33
1 62118U 23026RO  26070.40853009  .00000000  00000+0  00000-0 0  9994
2 62118  55.0000 304.2857 0000000   0.0000 231.5844 15.38683946    10
GSN_L_00001072-34
1 62119U 23661UR  26070.40853009  .00000000  00000+0  00000-0 0  9990
2 62119  55.0000 304.2857 0000000   0.0000 238.1299 15.38683946    18
GSN_L_00001072-35
1 62120U 22608TR  26070.40853009  .00000000  00000+0  00000-0 0  9992
2 62120  55.0000 304.2857 0000000   0.0000 244.6753 15.38683946    17
GSN_L_00001072-36
1 62121U 25212WM  26070.40853009  .00000000  00000+0  00000-0 0  9997
2 62121  55.0000 304.2857 0000000   0.0000 251.2208 15.38683946    17
GSN_L_00001072-37
1 62122U 22489IZ  26070.40853009  .00000000  00000+0  00000-0 0  9991
2 62122  55.0000 304.2857 0000000   0.0000 257.7662 15.38683946    13
GSN_L_00001072-38
1 62123U 23844UA  26070.40853009  .00000000  00000+0  00000-0 0  9998
2 62123  55.0000 304.2857 0000000   0.0000 264.3117 15.38683946    13
GSN_L_00001072-39
1 62124U 25398S   26070.40853009  .00000000  00000+0  00000-0 0  9995
2 62124  55.0000 304.2857 0000000   0.0000 270.8571 15.38683946    10
GSN_L_00001072-40
1 62125U 26168JN  26070.40853009  .00000000  00000+0  00000-0 0  9992
2 62125  55.0000 304.2857 0000000   0.0000 277.4026 15.38683946    19
GSN_L_00001072-41
1 62126U 23541XO  26070.40853009  .00000000  00000+0  00000-0 0  9995
2 62126  55.0000 304.2857 0000000   0.0000 283.9481 15.38683946    17
GSN_L_00001072-42
1 62127U 23437LR  26070.40853009  .00000000  00000+0  00000-0 0  9990
2 62127  55.0000 304.2857 0000000   0.0000 290.4935 15.38683946    15
GSN_L_00001072-43
1 62128U 24861JK  26070.40853009  .00000000  00000+0  00000-0 0  9993
2 62128  55.0000 304.2857 0000000   0.0000 297.0390 15.38683946    14
GSN_L_00001072-44
1 62129U 25303VP  26070.40853009  .00000000  00000+0  00000-0 0  9996
2 62129  55.0000 304.2857 0000000   0.0000 303.5844 15.38683946    12
GSN_L_00001072-45
1 62130U 25438DD  26070.40853009  .00000000  00000+0  00000-0 0  9997
2 62130  55.0000 304.2857 0000000   0.0000 310.1299 15.38683946    12
GSN_L_00001072-46
1 62131U 22139RS  26070.40853009  .00000000  00000+0  00000-0 0  9993
2 62131  55.0000 304.2857 0000000   0.0000 316.6753 15.38683946    19
GSN_L_00001072-47
1 62132U 24775VW  26070.40853009  .00000000  00000+0  00000-0 0  9992
2 62132  55.0000 304.2857 0000000   0.0000 323.2208 15.38683946    19
GSN_L_00001072-48
1 62133U 23740NJ  26070.40853009  .00000000  00000+0  00000-0 0  9994
2 62133  55.0000 304.2857 0000000   0.0000 329.7662 15.38683946    15
GSN_L_00001072-49
1 62134U 25149UH  26070.40853009  .00000000  00000+0  00000-0 0  9990
2 62134  55.0000 304.2857 0000000   0.0000 336.3117 15.38683946    15
GSN_L_00001072-50
1 62135U 22803GZ  26070.40853009  .00000000  00000+0  00000-0 0  9995
2 62135  55.0000 304.2857 0000000   0.0000 342.8571 15.38683946    12
GSN_L_00001072-51
1 62136U 26862YU  26070.40853009  .00000000  00000+0  00000-0 0  9995
2 62136  55.0000 304.2857 0000000   0.0000 349.4026 15.38683946    11
GSN_L_00001072-52
1 62137U 22843HQ  26070.40853009  .00000000  00000+0  00000-0 0  9991
2 62137  55.0000 304.2857 0000000   0.0000 355.9481 15.38683946    19
GSN_L_00001072-53
1 62138U 25340AA  26070.40853009  .00000000  00000+0  00000-0 0  9997
2 62138  55.0000 304.2857 0000000   0.0000   2.4935 15.38683946    18
GSN_L_00001072-54
1 62139U 24852QP  26070.40853009  .00000000  00000+0  00000-0 0  9995
2 62139  55.0000 304.2857 0000000   0.0000   9.0390 15.38683946    17
GSN_L_00001072-55
1 62140U 23683OM  26070.40853009  .00000000  00000+0  00000-0 0  9998
2 62140  55.0000 304.2857 0000000   0.0000  15.5844 15.38683946    15
GSN_L_00001073-01
1 62141U 24396AU  26070.40853009  .00000000  00000+0  00000-0 0  9991
2 62141  55.0000 308.5714 0000000   0.0000  22.4416 15.38683946    17
GSN_L_00001073-02
1 62142U 26292GW  26070.40853009  .00000000  00000+0  00000-0 0  9999
2 62142  55.0000 308.5714 0000000   0.0000  28.9870 15.38683946    13
GSN_L_00001073-03
1 62143U 22274FY  26070.40853009  .00000000  00000+0  00000-0 0  9996
2 62143  55.0000 308.5714 0000000   0.0000  35.5325 15.38683946    13
GSN_L_00001073-04
1 62144U 24329FU  26070.40853009  .00000000  00000+0  00000-0 0  9990
2 62144  55.0000 308.5714 0000000   0.0000  42.0779 15.38683946    10
GSN_L_00001073-05
1 62145U 25920FR  26070.40853009  .00000000  00000+0  00000-0 0  9999
2 62145  55.0000 308.5714 0000000   0.0000  48.6234 15.38683946    19
GSN_L_00001073-06
1 62146U 23893NM  26070.40853009  .00000000  00000+0  00000-0 0  9997
2 62146  55.0000 308.5714 0000000   0.0000  55.1688 15.38683946    16
GSN_L_00001073-07
1 62147U 23335JE  26070.40853009  .00000000  00000+0  00000-0 0  9999
2 62147  55.0000 308.5714 0000000   0.0000  61.7143 15.38683946    16
GSN_L_00001073-08
1 62148U 26613RO  26070.40853009  .00000000  00000+0  00000-0 0  9992
2 62148  55.0000 308.5714 0000000   0.0000  68.2597 15.38683946    12
GSN_L_00001073-09
1 62149U 24456QM  26070.40853009  .00000000  00000+0  00000-0 0  9996
2 62149  55.0000 308.5714 0000000   0.0000  74.8052 15.38683946    12
